ALOS (DAICHI)           
1 28931U 06002A   26095.86903387  .00001786  00000+0  30681-3 0  9999
2 28931  98.1264  51.6978 0001211 115.6099 244.5232 14.69900381 77475
H-2A R/B                
1 28932U 06002B   26095.85603346  .00012042  00000+0  59019-3 0  9994
2 28932  98.2468 245.2370 0052497 148.4642 211.9754 15.17083541 98553
RESURS-DK 1             
1 29228U 06021A   26095.64471118  .00003187  00000+0  18657-3 0  9994
2 29228  69.9329 167.2939 0002088  31.5145 328.6145 15.12918268 91605
CZ-4B R/B               
1 29507U 06046C   26095.71869163  .00005997  00000+0  30092-3 0  9998
2 29507  97.5534 140.5519 0033427 171.1316 189.0515 15.17204599 64149
CZ-2C R/B               
1 31114U 07010B   26095.84924068  .00000198  00000+0  10999-3 0  9999
2 31114  98.4007 207.7704 0058413 214.2705 145.4697 14.20256946983576
COSMO-SKYMED 1          
1 31598U 07023A   26095.80872858  .00005172  00000+0  45748-3 0  9991
2 31598  97.8876 287.0624 0001681  98.1800 261.9611 14.96751764 18964
COSMOS 2428             
1 31792U 07029A   26095.86157723 -.00000046  00000+0  87978-6 0  9996
2 31792  70.9420 146.3147 0009681 248.7861 111.2227 14.12948946967930
SL-16 R/B               
1 31793U 07029B   26095.80518865 -.00000137  00000+0 -46066-4 0  9992
2 31793  70.9737 115.3868 0002921 276.3903 256.0194 14.14843831969204
KORONAS-FOTON           
1 33504U 09003A   26095.85998772  .00014995  00000+0  32592-3 0  9995
2 33504  82.4290 247.6104 0011383  61.0139 299.2248 15.44128260949935
CZ-2C R/B               
1 37731U 11030B   26095.82901443  .00001903  00000+0  24538-3 0  9996
2 37731  97.8589  52.5592 0050924 261.8895 127.8766 14.81322152794114
H-2A R/B                
1 38341U 12025E   26095.83057383  .00003080  00000+0  28022-3 0  9995
2 38341  98.4774  65.0620 0043432 222.9649 136.8175 14.95362994752275
SHIJIAN-16 (SJ-16)      
1 39358U 13057A   26095.84583242  .00001434  00000+0  14237-3 0  9993
2 39358  74.9707 133.6784 0015442  42.2050 318.0324 14.92444911675553
SL-4 R/B                
1 39679U 14021B   26095.56517520  .00020100  00000+0  42885-3 0  9997
2 39679  51.6069 206.0734 0094201 201.0824 158.6266 15.40212228660416
ALOS-2                  
1 39766U 14029A   26095.90722192  .00000162  00000+0  28646-4 0  9999
2 39766  97.9197 194.1086 0001834 101.3157 258.8261 14.79453646640896
YAOGAN-29               
1 41038U 15069A   26095.85053652  .00000877  00000+0  11456-3 0  9994
2 41038  98.0099 124.3480 0000183 157.4555 202.6666 14.83028945559909
ASTRO-H (HITOMI)        
1 41337U 16012A   26095.53631347  .00003840  00000+0  22352-3 0  9993
2 41337  30.9986 183.2757 0009677 241.7072 118.2590 15.10186619556291
HXMT (HUIYAN)           
1 42758U 17034A   26095.82774747  .00008738  00000+0  43004-3 0  9998
2 42758  43.0140 225.7544 0030731  44.6178 315.7137 15.17841228486669
