[{"OBJECT_NAME":"ALOS (DAICHI)","OBJECT_ID":"2006-002A","EPOCH":"2026-04-05T20:51:24.526368","MEAN_MOTION":14.69900381,"ECCENTRICITY":0.0001211,"INCLINATION":98.1264,"RA_OF_ASC_NODE":51.6978,"ARG_OF_PERICENTER":115.6099,"MEAN_ANOMALY":244.5232,"EPHEMERIS_TYPE":0,"CLASSIFICATION_TYPE":"U","NORAD_CAT_ID":28931,"ELEMENT_SET_NO":999,"REV_AT_EPOCH":7747,"BSTAR":0.00030681,"MEAN_MOTION_DOT":1.786e-5,"MEAN_MOTION_DDOT":0},{"OBJECT_NAME":"H-2A R/B","OBJECT_ID":"2006-002B","EPOCH":"2026-04-05T20:32:41.290944","MEAN_MOTION":15.17083541,"ECCENTRICITY":0.0052497,"INCLINATION":98.2468,"RA_OF_ASC_NODE":245.237,"ARG_OF_PERICENTER":148.4642,"MEAN_ANOMALY":211.9754,"EPHEMERIS_TYPE":0,"CLASSIFICATION_TYPE":"U","NORAD_CAT_ID":28932,"ELEMENT_SET_NO":999,"REV_AT_EPOCH":9855,"BSTAR":0.00059019,"MEAN_MOTION_DOT":0.00012042,"MEAN_MOTION_DDOT":0},{"OBJECT_NAME":"RESURS-DK 1","OBJECT_ID":"2006-021A","EPOCH":"2026-04-05T15:28:23.045952","MEAN_MOTION":15.12918268,"ECCENTRICITY":0.0002088,"INCLINATION":69.9329,"RA_OF_ASC_NODE":167.2939,"ARG_OF_PERICENTER":31.5145,"MEAN_ANOMALY":328.6145,"EPHEMERIS_TYPE":0,"CLASSIFICATION_TYPE":"U","NORAD_CAT_ID":29228,"ELEMENT_SET_NO":999,"REV_AT_EPOCH":9160,"BSTAR":0.00018657,"MEAN_MOTION_DOT":3.187e-5,"MEAN_MOTION_DDOT":0},{"OBJECT_NAME":"CZ-4B R/B","OBJECT_ID":"2006-046C","EPOCH":"2026-04-05T17:14:54.956832","MEAN_MOTION":15.17204599,"ECCENTRICITY":0.0033427,"INCLINATION":97.5534,"RA_OF_ASC_NODE":140.5519,"ARG_OF_PERICENTER":171.1316,"MEAN_ANOMALY":189.0515,"EPHEMERIS_TYPE":0,"CLASSIFICATION_TYPE":"U","NORAD_CAT_ID":29507,"ELEMENT_SET_NO":999,"REV_AT_EPOCH":6414,"BSTAR":0.00030092,"MEAN_MOTION_DOT":5.997e-5,"MEAN_MOTION_DDOT":0},{"OBJECT_NAME":"CZ-2C R/B","OBJECT_ID":"2007-010B","EPOCH":"2026-04-05T20:22:54.394752","MEAN_MOTION":14.20256946,"ECCENTRICITY":0.0058413,"INCLINATION":98.4007,"RA_OF_ASC_NODE":207.7704,"ARG_OF_PERICENTER":214.2705,"MEAN_ANOMALY":145.4697,"EPHEMERIS_TYPE":0,"CLASSIFICATION_TYPE":"U","NORAD_CAT_ID":31114,"ELEMENT_SET_NO":999,"REV_AT_EPOCH":98357,"BSTAR":0.00010999,"MEAN_MOTION_DOT":1.98e-6,"MEAN_MOTION_DDOT":0},{"OBJECT_NAME":"COSMO-SKYMED 1","OBJECT_ID":"2007-023A","EPOCH":"2026-04-05T19:24:34.149312","MEAN_MOTION":14.96751764,"ECCENTRICITY":0.0001681,"INCLINATION":97.8876,"RA_OF_ASC_NODE":287.0624,"ARG_OF_PERICENTER":98.18,"MEAN_ANOMALY":261.9611,"EPHEMERIS_TYPE":0,"CLASSIFICATION_TYPE":"U","NORAD_CAT_ID":31598,"ELEMENT_SET_NO":999,"REV_AT_EPOCH":1896,"BSTAR":0.00045748,"MEAN_MOTION_DOT":5.172e-5,"MEAN_MOTION_DDOT":0},{"OBJECT_NAME":"COSMOS 2428","OBJECT_ID":"2007-029A","EPOCH":"2026-04-05T20:40:40.272672","MEAN_MOTION":14.12948946,"ECCENTRICITY":0.0009681,"INCLINATION":70.942,"RA_OF_ASC_NODE":146.3147,"ARG_OF_PERICENTER":248.7861,"MEAN_ANOMALY":111.2227,"EPHEMERIS_TYPE":0,"CLASSIFICATION_TYPE":"U","NORAD_CAT_ID":31792,"ELEMENT_SET_NO":999,"REV_AT_EPOCH":96793,"BSTAR":8.7978e-7,"MEAN_MOTION_DOT":-4.6e-7,"MEAN_MOTION_DDOT":0},{"OBJECT_NAME":"SL-16 R/B","OBJECT_ID":"2007-029B","EPOCH":"2026-04-05T19:19:28.299360","MEAN_MOTION":14.14843831,"ECCENTRICITY":0.0002921,"INCLINATION":70.9737,"RA_OF_ASC_NODE":115.3868,"ARG_OF_PERICENTER":276.3903,"MEAN_ANOMALY":256.0194,"EPHEMERIS_TYPE":0,"CLASSIFICATION_TYPE":"U","NORAD_CAT_ID":31793,"ELEMENT_SET_NO":999,"REV_AT_EPOCH":96920,"BSTAR":-4.6066e-5,"MEAN_MOTION_DOT":-1.37e-6,"MEAN_MOTION_DDOT":0},{"OBJECT_NAME":"KORONAS-FOTON","OBJECT_ID":"2009-003A","EPOCH":"2026-04-05T20:38:22.939008","MEAN_MOTION":15.4412826,"ECCENTRICITY":0.0011383,"INCLINATION":82.429,"RA_OF_ASC_NODE":247.6104,"ARG_OF_PERICENTER":61.0139,"MEAN_ANOMALY":299.2248,"EPHEMERIS_TYPE":0,"CLASSIFICATION_TYPE":"U","NORAD_CAT_ID":33504,"ELEMENT_SET_NO":999,"REV_AT_EPOCH":94993,"BSTAR":0.00032592,"MEAN_MOTION_DOT":0.00014995,"MEAN_MOTION_DDOT":0},{"OBJECT_NAME":"CZ-2C R/B","OBJECT_ID":"2011-030B","EPOCH":"2026-04-05T19:53:46.846752","MEAN_MOTION":14.81322152,"ECCENTRICITY":0.0050924,"INCLINATION":97.8589,"RA_OF_ASC_NODE":52.5592,"ARG_OF_PERICENTER":261.8895,"MEAN_ANOMALY":127.8766,"EPHEMERIS_TYPE":0,"CLASSIFICATION_TYPE":"U","NORAD_CAT_ID":37731,"ELEMENT_SET_NO":999,"REV_AT_EPOCH":79411,"BSTAR":0.00024538,"MEAN_MOTION_DOT":1.903e-5,"MEAN_MOTION_DDOT":0},{"OBJECT_NAME":"H-2A R/B","OBJECT_ID":"2012-025E","EPOCH":"2026-04-05T19:56:01.578912","MEAN_MOTION":14.95362994,"ECCENTRICITY":0.0043432,"INCLINATION":98.4774,"RA_OF_ASC_NODE":65.062,"ARG_OF_PERICENTER":222.9649,"MEAN_ANOMALY":136.8175,"EPHEMERIS_TYPE":0,"CLASSIFICATION_TYPE":"U","NORAD_CAT_ID":38341,"ELEMENT_SET_NO":999,"REV_AT_EPOCH":75227,"BSTAR":0.00028022,"MEAN_MOTION_DOT":3.08e-5,"MEAN_MOTION_DDOT":0},{"OBJECT_NAME":"SHIJIAN-16 (SJ-16)","OBJECT_ID":"2013-057A","EPOCH":"2026-04-05T20:17:59.921088","MEAN_MOTION":14.92444911,"ECCENTRICITY":0.0015442,"INCLINATION":74.9707,"RA_OF_ASC_NODE":133.6784,"ARG_OF_PERICENTER":42.205,"MEAN_ANOMALY":318.0324,"EPHEMERIS_TYPE":0,"CLASSIFICATION_TYPE":"U","NORAD_CAT_ID":39358,"ELEMENT_SET_NO":999,"REV_AT_EPOCH":67555,"BSTAR":0.00014237,"MEAN_MOTION_DOT":1.434e-5,"MEAN_MOTION_DDOT":0},{"OBJECT_NAME":"SL-4 R/B","OBJECT_ID":"2014-021B","EPOCH":"2026-04-05T13:33:51.137280","MEAN_MOTION":15.40212228,"ECCENTRICITY":0.0094201,"INCLINATION":51.6069,"RA_OF_ASC_NODE":206.0734,"ARG_OF_PERICENTER":201.0824,"MEAN_ANOMALY":158.6266,"EPHEMERIS_TYPE":0,"CLASSIFICATION_TYPE":"U","NORAD_CAT_ID":39679,"ELEMENT_SET_NO":999,"REV_AT_EPOCH":66041,"BSTAR":0.00042885,"MEAN_MOTION_DOT":0.000201,"MEAN_MOTION_DDOT":0},{"OBJECT_NAME":"ALOS-2","OBJECT_ID":"2014-029A","EPOCH":"2026-04-05T21:46:23.973888","MEAN_MOTION":14.79453646,"ECCENTRICITY":0.0001834,"INCLINATION":97.9197,"RA_OF_ASC_NODE":194.1086,"ARG_OF_PERICENTER":101.3157,"MEAN_ANOMALY":258.8261,"EPHEMERIS_TYPE":0,"CLASSIFICATION_TYPE":"U","NORAD_CAT_ID":39766,"ELEMENT_SET_NO":999,"REV_AT_EPOCH":64089,"BSTAR":2.8646e-5,"MEAN_MOTION_DOT":1.62e-6,"MEAN_MOTION_DDOT":0},{"OBJECT_NAME":"YAOGAN-29","OBJECT_ID":"2015-069A","EPOCH":"2026-04-05T20:24:46.355328","MEAN_MOTION":14.83028945,"ECCENTRICITY":1.83e-5,"INCLINATION":98.0099,"RA_OF_ASC_NODE":124.348,"ARG_OF_PERICENTER":157.4555,"MEAN_ANOMALY":202.6666,"EPHEMERIS_TYPE":0,"CLASSIFICATION_TYPE":"U","NORAD_CAT_ID":41038,"ELEMENT_SET_NO":999,"REV_AT_EPOCH":55990,"BSTAR":0.00011456,"MEAN_MOTION_DOT":8.77e-6,"MEAN_MOTION_DDOT":0},{"OBJECT_NAME":"ASTRO-H (HITOMI)","OBJECT_ID":"2016-012A","EPOCH":"2026-04-05T12:52:17.483808","MEAN_MOTION":15.10186619,"ECCENTRICITY":0.0009677,"INCLINATION":30.9986,"RA_OF_ASC_NODE":183.2757,"ARG_OF_PERICENTER":241.7072,"MEAN_ANOMALY":118.259,"EPHEMERIS_TYPE":0,"CLASSIFICATION_TYPE":"U","NORAD_CAT_ID":41337,"ELEMENT_SET_NO":999,"REV_AT_EPOCH":55629,"BSTAR":0.00022352,"MEAN_MOTION_DOT":3.84e-5,"MEAN_MOTION_DDOT":0},{"OBJECT_NAME":"HXMT (HUIYAN)","OBJECT_ID":"2017-034A","EPOCH":"2026-04-05T19:51:57.381408","MEAN_MOTION":15.17841228,"ECCENTRICITY":0.0030731,"INCLINATION":43.014,"RA_OF_ASC_NODE":225.7544,"ARG_OF_PERICENTER":44.6178,"MEAN_ANOMALY":315.7137,"EPHEMERIS_TYPE":0,"CLASSIFICATION_TYPE":"U","NORAD_CAT_ID":42758,"ELEMENT_SET_NO":999,"REV_AT_EPOCH":48666,"BSTAR":0.00043004,"MEAN_MOTION_DOT":8.738e-5,"MEAN_MOTION_DDOT":0}]
